{"type": "FeatureCollection", "features": [ {"type": "Feature", "properties": {"norad_id": 65304, "name": "DRAGON CRS-33", "group": "stations", "lat": 36.434991300071694, "lon": 152.70476607263373, "alt_km": 414.7117365050308, "timestamp": "2025-12-17T21:39:44.513031+00:00", "meta": {"OBJECT_NAME": "DRAGON CRS-33", "OBJECT_ID": "2025-186A", "EPOCH": "2025-12-17T13:42:43.375968", "MEAN_MOTION": 15.49636687, "ECCENTRICITY": 0.00031828, "INCLINATION": 51.631, "RA_OF_ASC_NODE": 118.5527, "ARG_OF_PERICENTER": 262.6214, "MEAN_ANOMALY": 97.4413, "EPHEMERIS_TYPE": 0, "CLASSIFICATION_TYPE": "U", "NORAD_CAT_ID": 65304, "ELEMENT_SET_NO": 999, "REV_AT_EPOCH": 11, "BSTAR": 0.00014273627, "MEAN_MOTION_DOT": 7.597e-05, "MEAN_MOTION_DDOT": 0}, "tle": {"line1": "1 65304U 25186A   25351.57133537  .00007597  00000+0  14274-3 0  9998", "line2": "2 65304  51.6310 118.5527 0003182 262.6214  97.4413 15.49636687   117"}}, "geometry": {"type": "Point", "coordinates": [152.70476607263373, 36.434991300071694]}}, {"type": "Feature", "properties": {"norad_id": 65586, "name": "PROGRESS-MS 32", "group": "stations", "lat": 36.43499171116663, "lon": 152.7047666924167, "alt_km": 414.71173645348335, "timestamp": "2025-12-17T21:39:44.513041+00:00", "meta": {"OBJECT_NAME": "PROGRESS-MS 32", "OBJECT_ID": "2025-204A", "EPOCH": "2025-12-17T13:42:43.375968", "MEAN_MOTION": 15.49636687, "ECCENTRICITY": 0.00031828, "INCLINATION": 51.631, "RA_OF_ASC_NODE": 118.5527, "ARG_OF_PERICENTER": 262.6214, "MEAN_ANOMALY": 97.4413, "EPHEMERIS_TYPE": 0, "CLASSIFICATION_TYPE": "U", "NORAD_CAT_ID": 65586, "ELEMENT_SET_NO": 999, "REV_AT_EPOCH": 27, "BSTAR": 0.00014273627, "MEAN_MOTION_DOT": 7.597e-05, "MEAN_MOTION_DDOT": 0}, "tle": {"line1": "1 65586U 25204A   25351.57133537  .00007597  00000+0  14274-3 0  9991", "line2": "2 65586  51.6310 118.5527 0003182 262.6214  97.4413 15.49636687   276"}}, "geometry": {"type": "Point", "coordinates": [152.7047666924167, 36.43499171116663]}}, {"type": "Feature", "properties": {"norad_id": 65616, "name": "CYGNUS NG-23", "group": "stations", "lat": 36.43499208115216, "lon": 152.70476725022158, "alt_km": 414.7117364070891, "timestamp": "2025-12-17T21:39:44.513050+00:00", "meta": {"OBJECT_NAME": "CYGNUS NG-23", "OBJECT_ID": "2025-208A", "EPOCH": "2025-12-17T13:42:43.375968", "MEAN_MOTION": 15.49636687, "ECCENTRICITY": 0.00031828, "INCLINATION": 51.631, "RA_OF_ASC_NODE": 118.5527, "ARG_OF_PERICENTER": 262.6214, "MEAN_ANOMALY": 97.4413, "EPHEMERIS_TYPE": 0, "CLASSIFICATION_TYPE": "U", "NORAD_CAT_ID": 65616, "ELEMENT_SET_NO": 999, "REV_AT_EPOCH": 22, "BSTAR": 0.00014273627, "MEAN_MOTION_DOT": 7.597e-05, "MEAN_MOTION_DDOT": 0}, "tle": {"line1": "1 65616U 25208A   25351.57133537  .00007597  00000+0  14274-3 0  9999", "line2": "2 65616  51.6310 118.5527 0003182 262.6214  97.4413 15.49636687   225"}}, "geometry": {"type": "Point", "coordinates": [152.70476725022158, 36.43499208115216]}}, {"type": "Feature", "properties": {"norad_id": 65729, "name": "DRAGONFLY", "group": "stations", "lat": 50.59171233856097, "lon": -145.3956669149696, "alt_km": 345.71801566815975, "timestamp": "2025-12-17T21:39:44.513060+00:00", "meta": {"OBJECT_NAME": "DRAGONFLY", "OBJECT_ID": "1998-067XH", "EPOCH": "2025-12-17T13:37:12.344736", "MEAN_MOTION": 15.73531298, "ECCENTRICITY": 0.00072061, "INCLINATION": 51.6243, "RA_OF_ASC_NODE": 111.0116, "ARG_OF_PERICENTER": 308.514, "MEAN_ANOMALY": 51.5212, "EPHEMERIS_TYPE": 0, "CLASSIFICATION_TYPE": "U", "NORAD_CAT_ID": 65729, "ELEMENT_SET_NO": 999, "REV_AT_EPOCH": 1392, "BSTAR": 0.0011077639, "MEAN_MOTION_DOT": 0.00160588, "MEAN_MOTION_DDOT": 0}, "tle": {"line1": "1 65729U 98067XH  25351.56750399  .00160588  00000+0  11078-2 0  9995", "line2": "2 65729  51.6243 111.0116 0007206 308.5140  51.5212 15.73531298 13924"}}, "geometry": {"type": "Point", "coordinates": [-145.3956669149696, 50.59171233856097]}}, {"type": "Feature", "properties": {"norad_id": 65731, "name": "1998-067XK", "group": "stations", "lat": 1.2440218676400758, "lon": 112.00334425183446, "alt_km": 368.49690642594123, "timestamp": "2025-12-17T21:39:44.513070+00:00", "meta": {"OBJECT_NAME": "1998-067XK", "OBJECT_ID": "1998-067XK", "EPOCH": "2025-12-17T14:00:04.713696", "MEAN_MOTION": 15.66666293, "ECCENTRICITY": 0.00047593, "INCLINATION": 51.6289, "RA_OF_ASC_NODE": 112.64, "ARG_OF_PERICENTER": 277.2608, "MEAN_ANOMALY": 82.7846, "EPHEMERIS_TYPE": 0, "CLASSIFICATION_TYPE": "U", "NORAD_CAT_ID": 65731, "ELEMENT_SET_NO": 999, "REV_AT_EPOCH": 1390, "BSTAR": 0.00079228691, "MEAN_MOTION_DOT": 0.00085225, "MEAN_MOTION_DDOT": 0}, "tle": {"line1": "1 65731U 98067XK  25351.58338789  .00085225  00000+0  79229-3 0  9992", "line2": "2 65731  51.6289 112.6400 0004759 277.2608  82.7846 15.66666293 13904"}}, "geometry": {"type": "Point", "coordinates": [112.00334425183446, 1.2440218676400758]}}, {"type": "Feature", "properties": {"norad_id": 65732, "name": "RSP-03", "group": "stations", "lat": 23.620182534512747, "lon": 130.46974811621604, "alt_km": 357.40632123256546, "timestamp": "2025-12-17T21:39:44.513080+00:00", "meta": {"OBJECT_NAME": "RSP-03", "OBJECT_ID": "1998-067XL", "EPOCH": "2025-12-17T13:53:35.595744", "MEAN_MOTION": 15.69845633, "ECCENTRICITY": 0.0005617, "INCLINATION": 51.6262, "RA_OF_ASC_NODE": 111.8477, "ARG_OF_PERICENTER": 283.4279, "MEAN_ANOMALY": 76.6092, "EPHEMERIS_TYPE": 0, "CLASSIFICATION_TYPE": "U", "NORAD_CAT_ID": 65732, "ELEMENT_SET_NO": 999, "REV_AT_EPOCH": 1392, "BSTAR": 0.00093703449, "MEAN_MOTION_DOT": 0.00115432, "MEAN_MOTION_DDOT": 0}, "tle": {"line1": "1 65732U 98067XL  25351.57888421  .00115432  00000+0  93703-3 0  9992", "line2": "2 65732  51.6262 111.8477 0005617 283.4279  76.6092 15.69845633 13925"}}, "geometry": {"type": "Point", "coordinates": [130.46974811621604, 23.620182534512747]}}, {"type": "Feature", "properties": {"norad_id": 65733, "name": "GHS-01", "group": "stations", "lat": 48.48059357152213, "lon": 172.11560386038053, "alt_km": 334.64709591175415, "timestamp": "2025-12-17T21:39:44.513089+00:00", "meta": {"OBJECT_NAME": "GHS-01", "OBJECT_ID": "1998-067XM", "EPOCH": "2025-12-17T15:16:18.486912", "MEAN_MOTION": 15.76951537, "ECCENTRICITY": 0.00078677, "INCLINATION": 51.6275, "RA_OF_ASC_NODE": 109.9788, "ARG_OF_PERICENTER": 312.8661, "MEAN_ANOMALY": 47.1678, "EPHEMERIS_TYPE": 0, "CLASSIFICATION_TYPE": "U", "NORAD_CAT_ID": 65733, "ELEMENT_SET_NO": 999, "REV_AT_EPOCH": 1395, "BSTAR": 0.001249396, "MEAN_MOTION_DOT": 0.00211757, "MEAN_MOTION_DDOT": 0}, "tle": {"line1": "1 65733U 98067XM  25351.63632508  .00211757  00000+0  12494-2 0  9997", "line2": "2 65733  51.6275 109.9788 0007867 312.8661  47.1678 15.76951537 13959"}}, "geometry": {"type": "Point", "coordinates": [172.11560386038053, 48.48059357152213]}}, {"type": "Feature", "properties": {"norad_id": 65941, "name": "YOTSUBA-KULOVER", "group": "stations", "lat": 2.187078248369566, "lon": 115.74748931124638, "alt_km": 387.15948153827867, "timestamp": "2025-12-17T21:39:44.513100+00:00", "meta": {"OBJECT_NAME": "YOTSUBA-KULOVER", "OBJECT_ID": "1998-067XN", "EPOCH": "2025-12-17T15:30:04.341312", "MEAN_MOTION": 15.60110831, "ECCENTRICITY": 0.00015491, "INCLINATION": 51.6281, "RA_OF_ASC_NODE": 115.3056, "ARG_OF_PERICENTER": 303.2507, "MEAN_ANOMALY": 56.8338, "EPHEMERIS_TYPE": 0, "CLASSIFICATION_TYPE": "U", "NORAD_CAT_ID": 65941, "ELEMENT_SET_NO": 999, "REV_AT_EPOCH": 1062, "BSTAR": 0.00071229285, "MEAN_MOTION_DOT": 0.00058878, "MEAN_MOTION_DDOT": 0}, "tle": {"line1": "1 65941U 98067XN  25351.64588358  .00058878  00000+0  71229-3 0  9997", "line2": "2 65941  51.6281 115.3056 0001549 303.2507  56.8338 15.60110831 10628"}}, "geometry": {"type": "Point", "coordinates": [115.74748931124638, 2.187078248369566]}}, {"type": "Feature", "properties": {"norad_id": 65942, "name": "BOTAN", "group": "stations", "lat": 29.448380688914945, "lon": 139.76257833277083, "alt_km": 373.4732629261325, "timestamp": "2025-12-17T21:39:44.513110+00:00", "meta": {"OBJECT_NAME": "BOTAN", "OBJECT_ID": "1998-067XP", "EPOCH": "2025-12-17T15:21:45.594720", "MEAN_MOTION": 15.63897894, "ECCENTRICITY": 0.00028568, "INCLINATION": 51.6282, "RA_OF_ASC_NODE": 114.5172, "ARG_OF_PERICENTER": 279.3266, "MEAN_ANOMALY": 80.7406, "EPHEMERIS_TYPE": 0, "CLASSIFICATION_TYPE": "U", "NORAD_CAT_ID": 65942, "ELEMENT_SET_NO": 999, "REV_AT_EPOCH": 1063, "BSTAR": 0.00098815629, "MEAN_MOTION_DOT": 0.00095351, "MEAN_MOTION_DDOT": 0}, "tle": {"line1": "1 65942U 98067XP  25351.64011105  .00095351  00000+0  98816-3 0  9997", "line2": "2 65942  51.6282 114.5172 0002856 279.3266  80.7406 15.63897894 10634"}}, "geometry": {"type": "Point", "coordinates": [139.76257833277083, 29.448380688914945]}}, {"type": "Feature", "properties": {"norad_id": 65943, "name": "E-KAGAKU-1", "group": "stations", "lat": 1.74561248163771, "lon": 115.40291482934786, "alt_km": 388.31994104786827, "timestamp": "2025-12-17T21:39:44.513119+00:00", "meta": {"OBJECT_NAME": "E-KAGAKU-1", "OBJECT_ID": "1998-067XQ", "EPOCH": "2025-12-17T15:30:12.868992", "MEAN_MOTION": 15.6010188, "ECCENTRICITY": 0.00013526, "INCLINATION": 51.6301, "RA_OF_ASC_NODE": 115.3109, "ARG_OF_PERICENTER": 235.3958, "MEAN_ANOMALY": 124.6907, "EPHEMERIS_TYPE": 0, "CLASSIFICATION_TYPE": "U", "NORAD_CAT_ID": 65943, "ELEMENT_SET_NO": 999, "REV_AT_EPOCH": 1062, "BSTAR": 0.00073264982, "MEAN_MOTION_DOT": 0.00060567, "MEAN_MOTION_DDOT": 0}, "tle": {"line1": "1 65943U 98067XQ  25351.64598228  .00060567  00000+0  73265-3 0  9996", "line2": "2 65943  51.6301 115.3109 0001352 235.3958 124.6907 15.60101880 10629"}}, "geometry": {"type": "Point", "coordinates": [115.40291482934786, 1.74561248163771]}}]}